LEMUR-1                 
1 40044U 14033AL  26064.66255443  .00003399  00000+0  39825-3 0  9999
2 40044  97.7708 216.8870 0049739  58.8222 301.7855 14.84775369630106
LEMUR-2-GREENBERG       
1 42837U 17042N   26064.46697005  .00022545  00000+0  83090-3 0  9993
2 42837  97.3766 245.8468 0009398  18.0268 342.1303 15.27781866472533
LEMUR-2-ANDIS           
1 42838U 17042P   26064.44028847  .00028096  00000+0  95685-3 0  9994
2 42838  97.3642 245.7075 0009409  18.4169 341.7411 15.30321098472566
LEMUR-2-MONSON          
1 42839U 17042Q   26064.45913569  .00020702  00000+0  83492-3 0  9999
2 42839  97.4022 245.9462 0006810   7.2307 352.9027 15.24819987472340
LEMUR-2-FURIAUS         
1 42840U 17042R   26064.56844377  .00029527  00000+0  11467-2 0  9999
2 42840  97.3740 244.1642 0007587  71.5362 288.6700 15.26004824472381
LEMUR-2-PETERG          
1 42841U 17042S   26064.49156092  .00023734  00000+0  83323-3 0  9997
2 42841  97.3969 249.6890 0003898 356.6134   3.5079 15.29401065472569
LEMUR-2-DEMBITZ         
1 42842U 17042T   26064.47719165  .00022237  00000+0  84596-3 0  9992
2 42842  97.3796 246.9722 0007185  30.8858 329.2802 15.26751822472501
LEMUR-2-ZACHARY         
1 42845U 17042W   26064.49870912  .00053712  00000+0  12700-2 0  9994
2 42845  97.3649 254.5532 0003680  32.8668 327.2807 15.41637964473187
LEMUR-2-JIN-LUEN        
1 43182U 18014C   26064.22420538  .00236840  00000+0  14399-2 0  9996
2 43182  97.5451 354.0918 0002111 124.2435 235.9030 15.76808820444769
LEMUR-2-KADI            
1 43184U 18014E   26064.57330318  .00105324  00000+0  11406-2 0  9990
2 43184  97.4716 349.0077 0000733  75.6339 284.5000 15.63218835444746
LEMUR-2-AMANDA-SVANTE   
1 48269U 21034B   26064.45510692  .00032190  00000+0  11717-2 0  9992
2 48269  97.5837 140.4634 0002246 216.8071 143.3014 15.28156990265185
LEMUR-2-SPECIAL-K       
1 48273U 21034F   26064.18263924  .00079425  00000+0  16942-2 0  9997
2 48273  97.5723 145.3016 0001486 220.2252 139.8886 15.44605954265541
LEMUR-2-EMBRIONOVIS     
1 56970U 23084AQ  26064.36752419  .00010697  00000+0  32158-3 0  9993
2 56970  97.6124 204.9098 0008542 329.6345  30.4402 15.34556177151746
LEMUR-2-MANO            
1 57390U 23100E   26064.59599909  .00144216  00000+0  17909-2 0  9998
2 57390  99.4549  85.7743 0001863  60.4341 299.7095 15.59500914145848
LEMUR-2-DEVERILL-M-T    
1 57391U 23100F   26064.60779399  .00030165  00000+0  90314-3 0  9993
2 57391  99.4575  73.9015 0008539  40.3746 319.8123 15.34465329145335
LEMUR-2-BASS            
1 58259U 23174D   26064.47052805  .00020748  00000+0  52808-3 0  9991
2 58259  97.3889 147.9948 0008073 176.7962 183.3337 15.39578162129381
LEMUR-2-JK0903EM1407    
1 58336U 23174CJ  26064.20809489  .00030405  00000+0  61473-3 0  9995
2 58336  97.3926 152.1959 0006248 130.7275 229.4518 15.46399264129631
LEMUR-2-MJR092620       
1 58340U 23174CN  26064.22497579  .00015806  00000+0  37227-3 0  9993
2 58340  97.3994 152.5921 0008104 128.6205 231.5768 15.41990710129613
LEMUR-2-NIMBUS2000      
1 58899U 24022A   26064.52393318  .00021329  00000+0  59759-3 0  9995
2 58899  97.4228 273.3995 0010480 126.7705 233.4502 15.36581492116339
LEMUR-2-VALHALLA        
1 58900U 24022B   26064.56757155  .00020778  00000+0  58648-3 0  9998
2 58900  97.4223 273.4789 0011078 122.3848 237.8469 15.36347625116342
LEMUR-2-OBA-NI-JESU     
1 58902U 24022D   26064.57495938  .00105683  00000+0  10902-2 0  9998
2 58902  97.4060 282.4241 0005096  83.4339 276.7500 15.64447648116953
LEMUR-2-CAEL            
1 58903U 24022E   26064.52824370  .00022008  00000+0  59909-3 0  9990
2 58903  97.4213 274.2063 0009427 106.9855 253.2423 15.37482559116393
LEMUR-2-JOHNNYTRUONG    
1 59146U 24043BA  26064.65730712  .00041689  00000+0  67321-3 0  9996
2 59146  97.5257 210.6280 0005384 197.6501 162.4565 15.52756059111939
LEMUR-2-TOMATOKECHUP    
1 60471U 24149D   26064.45139800  .00015043  00000+0  46479-3 0  9991
2 60471  97.3852 146.3950 0001072 196.9844 163.1362 15.33623162 86258
LEMUR-2-STELLA          
1 60533U 24149BT  26064.21860866  .00015492  00000+0  97407-3 0  9992
2 60533  97.6785 146.3991 0001662  96.2059 263.9359 15.09318063 84803
LEMUR-2-MARHISYAM       
1 60536U 24149BW  26064.49633152  .00015565  00000+0  99040-3 0  9997
2 60536  97.6927 147.0123 0003375 116.3223 243.8352 15.08877776 84832
LEMUR-2-AHMED-ASRAR     
1 60576U 24149DN  26064.22742035  .00015168  00000+0  93026-3 0  9990
2 60576  97.7040 148.4532 0002121  38.3078 321.8302 15.10234653 84860
LEMUR-2-LLOYD           
1 60577U 24149DP  26064.21079958  .00013656  00000+0  91369-3 0  9995
2 60577  97.6804 145.4381 0005328 134.9186 225.2475 15.07046795 84729
LEMUR-2-SQUIRRELCOMM    
1 60578U 24149DQ  26064.44129280  .00010105  00000+0  70059-3 0  9994
2 60578  97.6757 145.7658 0006106  53.7347 306.4443 15.05795762 84785
LEMUR-2-SIERRINI        
1 60579U 24149DR  26064.16594844  .00015970  00000+0  10254-2 0  9991
2 60579  97.6889 146.4736 0006204 163.0703 197.0733 15.08529292 84767
LEMUR-2-WILSON          
1 62694U 25009CP  26064.21267506  .00003692  00000+0  34589-3 0  9991
2 62694  97.7077 144.5205 0003746  45.4415 314.7111 14.94645093 61820
LEMUR-2-STAR-FOX        
1 62696U 25009CR  26064.47901805  .00012661  00000+0  10011-2 0  9997
2 62696  97.7056 146.9578 0002310 161.6094 198.5214 15.00779076 61995
LEMUR-2-ARIANNA         
1 62699U 25009CU  26064.20717485  .00010356  00000+0  81978-3 0  9990
2 62699  97.7018 146.5517 0004472 156.3640 203.7790 15.00782096 61954
LEMUR-2-ALISIA          
1 62706U 25009DB  26064.53816137  .00010029  00000+0  78829-3 0  9997
2 62706  97.7061 147.5321 0006388 169.2909 190.8452 15.01054328 84603
LEMUR-2-ROUNDTRIPPER    
1 62711U 25009DG  26064.23136086  .00011402  00000+0  87432-3 0  9994
2 62711  97.7306 147.1904 0004785 136.5683 223.5919 15.01969130 62018
LEMUR-2-MYNAMEISJEFF    
1 62712U 25009DH  26064.49638034  .00011820  00000+0  90633-3 0  9994
2 62712  97.7352 147.7739 0003962 161.9520 198.1846 15.01964897 62055
LEMUR-2-LEIA-PHILIP     
1 63246U 25052AN  26064.60358086  .00007598  00000+0  67215-3 0  9991
2 63246  97.6965 318.2670 0002832 191.0231 169.0929 14.96575725 53177
LEMUR-2-LIA-MARTIN      
1 63248U 25052AQ  26064.62544218  .00007635  00000+0  67248-3 0  9997
2 63248  97.7008 318.6474 0003237 154.3652 205.7731 14.96743382 53189
LEMUR-2-DELOITTE-1      
1 63259U 25052BB  26064.66104258  .00007098  00000+0  62555-3 0  9998
2 63259  97.7051 318.9945 0003273  87.2840 272.8757 14.96744811 53202
LEMUR-2-EMERSONROSE     
1 63261U 25052BD  26064.67109601  .00007600  00000+0  64534-3 0  9997
2 63261  97.7033 319.3559 0003192  59.5586 300.5952 14.98172264 53238
LEMUR-2-MARACHE-FRAN    
1 63262U 25052BE  26064.50304217  .00009213  00000+0  76810-3 0  9992
2 63262  97.6997 319.3801 0002346  43.6065 316.5343 14.98821458 53229
LEMUR-2-THEFALCONER     
1 63264U 25052BG  26064.20407684  .00006328  00000+0  56258-3 0  9991
2 63264  97.6992 318.2773 0002660  30.8100 329.3277 14.96446650 53132
LEMUR-2-UNTITLED-SC     
1 63351U 25061A   26064.46004795  .00006465  00000+0  37230-3 0  9993
2 63351  97.5555  40.6976 0017147 262.5509  97.3774 15.12641591 51904
LEMUR-2-ESPERANZA       
1 63352U 25061B   26064.50919642  .00005961  00000+0  34294-3 0  9992
2 63352  97.5559  40.8168 0016738 261.5598  98.3736 15.12717532 51915
LEMUR-2-KREMPEL-BRO2    
1 63353U 25061C   26064.49928317  .00006437  00000+0  36574-3 0  9992
2 63353  97.5604  41.2084 0017765 253.6217 106.3061 15.13121415 51922
LEMUR-2-THERMORAPTOR    
1 63354U 25061D   26064.61837824  .00007361  00000+0  41677-3 0  9996
2 63354  97.5613  41.3837 0017554 252.1652 107.7665 15.13200980 51945
LEMUR-2-NEUROSPICY      
1 63355U 25061E   26064.46559052  .00006942  00000+0  39237-3 0  9997
2 63355  97.5541  40.9396 0015222 256.6689 103.2845 15.13312702 51925
LEMUR-2-TILLINFINITY    
1 63356U 25061F   26064.40861778  .00007134  00000+0  39651-3 0  9997
2 63356  97.5525  41.1011 0016642 244.0271 115.9247 15.13887170 51933
LEMUR-2-KREMPEL-BRO1    
1 63357U 25061G   26064.50147129  .00006076  00000+0  33984-3 0  9993
2 63357  97.5523  41.1370 0017263 244.7415 115.2027 15.13717055 51941
LEMUR-2-LANGER2SPACE    
1 63358U 25061H   26064.44111146  .00005970  00000+0  33715-3 0  9991
2 63358  97.5530  40.9334 0015111 254.6910 105.2651 15.13404768 51921
LEMUR-2-BALTO           
1 63395U 25052BH  26064.62274009  .00008889  00000+0  74047-3 0  9995
2 63395  97.6993 319.4954 0002795   9.8251 350.3026 14.98863583 53242
